<?xml version="1.0" encoding="UTF-8"?>
<ndm xmlns:xsi="http://www.w3.org/2001/XMLSchema-instance" xsi:noNamespaceSchemaLocation="https://sanaregistry.org/r/ndmxml_unqualified/ndmxml-2.0.0-master-2.0.xsd">
<omm id="CCSDS_OMM_VERS" version="2.0">
<header><CREATION_DATE/><ORIGINATOR/></header><body><segment><metadata><OBJECT_NAME>ORBCOMM FM20</OBJECT_NAME><OBJECT_ID>1998-046D</OBJECT_ID><CENTER_NAME>EARTH</CENTER_NAME><REF_FRAME>TEME</REF_FRAME><TIME_SYSTEM>UTC</TIME_SYSTEM><MEAN_ELEMENT_THEORY>SGP4</MEAN_ELEMENT_THEORY></metadata><data><meanElements><EPOCH>2024-07-24T14:54:01.741536</EPOCH><MEAN_MOTION>14.35489255</MEAN_MOTION><ECCENTRICITY>.0001894</ECCENTRICITY><INCLINATION>44.9952</INCLINATION><RA_OF_ASC_NODE>290.7017</RA_OF_ASC_NODE><ARG_OF_PERICENTER>247.2900</ARG_OF_PERICENTER><MEAN_ANOMALY>112.7747</MEAN_ANOMALY></meanElements><tleParameters><EPHEMERIS_TYPE>0</EPHEMERIS_TYPE><CLASSIFICATION_TYPE>U</CLASSIFICATION_TYPE><NORAD_CAT_ID>25416</NORAD_CAT_ID><ELEMENT_SET_NO>999</ELEMENT_SET_NO><REV_AT_EPOCH>35716</REV_AT_EPOCH><BSTAR>.70514E-3</BSTAR><MEAN_MOTION_DOT>.1905E-4</MEAN_MOTION_DOT><MEAN_MOTION_DDOT>0</MEAN_MOTION_DDOT></tleParameters></data></segment></body></omm>
<omm id="CCSDS_OMM_VERS" version="2.0">
<header><CREATION_DATE/><ORIGINATOR/></header><body><segment><metadata><OBJECT_NAME>ORBCOMM FM16</OBJECT_NAME><OBJECT_ID>1998-046E</OBJECT_ID><CENTER_NAME>EARTH</CENTER_NAME><REF_FRAME>TEME</REF_FRAME><TIME_SYSTEM>UTC</TIME_SYSTEM><MEAN_ELEMENT_THEORY>SGP4</MEAN_ELEMENT_THEORY></metadata><data><meanElements><EPOCH>2024-07-25T05:18:19.199520</EPOCH><MEAN_MOTION>14.36571526</MEAN_MOTION><ECCENTRICITY>.0001644</ECCENTRICITY><INCLINATION>44.9937</INCLINATION><RA_OF_ASC_NODE>283.0378</RA_OF_ASC_NODE><ARG_OF_PERICENTER>120.4321</ARG_OF_PERICENTER><MEAN_ANOMALY>239.6689</MEAN_ANOMALY></meanElements><tleParameters><EPHEMERIS_TYPE>0</EPHEMERIS_TYPE><CLASSIFICATION_TYPE>U</CLASSIFICATION_TYPE><NORAD_CAT_ID>25417</NORAD_CAT_ID><ELEMENT_SET_NO>999</ELEMENT_SET_NO><REV_AT_EPOCH>35741</REV_AT_EPOCH><BSTAR>.80908E-3</BSTAR><MEAN_MOTION_DOT>.2259E-4</MEAN_MOTION_DOT><MEAN_MOTION_DDOT>0</MEAN_MOTION_DDOT></tleParameters></data></segment></body></omm>
<omm id="CCSDS_OMM_VERS" version="2.0">
<header><CREATION_DATE/><ORIGINATOR/></header><body><segment><metadata><OBJECT_NAME>ORBCOMM FM15</OBJECT_NAME><OBJECT_ID>1998-046F</OBJECT_ID><CENTER_NAME>EARTH</CENTER_NAME><REF_FRAME>TEME</REF_FRAME><TIME_SYSTEM>UTC</TIME_SYSTEM><MEAN_ELEMENT_THEORY>SGP4</MEAN_ELEMENT_THEORY></metadata><data><meanElements><EPOCH>2024-07-24T16:56:14.467200</EPOCH><MEAN_MOTION>14.36278979</MEAN_MOTION><ECCENTRICITY>.0001479</ECCENTRICITY><INCLINATION>44.9973</INCLINATION><RA_OF_ASC_NODE>289.7183</RA_OF_ASC_NODE><ARG_OF_PERICENTER>129.0647</ARG_OF_PERICENTER><MEAN_ANOMALY>231.0332</MEAN_ANOMALY></meanElements><tleParameters><EPHEMERIS_TYPE>0</EPHEMERIS_TYPE><CLASSIFICATION_TYPE>U</CLASSIFICATION_TYPE><NORAD_CAT_ID>25418</NORAD_CAT_ID><ELEMENT_SET_NO>999</ELEMENT_SET_NO><REV_AT_EPOCH>35712</REV_AT_EPOCH><BSTAR>.9375E-3</BSTAR><MEAN_MOTION_DOT>.2623E-4</MEAN_MOTION_DOT><MEAN_MOTION_DDOT>0</MEAN_MOTION_DDOT></tleParameters></data></segment></body></omm>
<omm id="CCSDS_OMM_VERS" version="2.0">
<header><CREATION_DATE/><ORIGINATOR/></header><body><segment><metadata><OBJECT_NAME>ORBCOMM FM14</OBJECT_NAME><OBJECT_ID>1998-046G</OBJECT_ID><CENTER_NAME>EARTH</CENTER_NAME><REF_FRAME>TEME</REF_FRAME><TIME_SYSTEM>UTC</TIME_SYSTEM><MEAN_ELEMENT_THEORY>SGP4</MEAN_ELEMENT_THEORY></metadata><data><meanElements><EPOCH>2024-07-24T15:37:32.127456</EPOCH><MEAN_MOTION>14.36477858</MEAN_MOTION><ECCENTRICITY>.0000348</ECCENTRICITY><INCLINATION>44.9963</INCLINATION><RA_OF_ASC_NODE>288.9778</RA_OF_ASC_NODE><ARG_OF_PERICENTER>197.8776</ARG_OF_PERICENTER><MEAN_ANOMALY>162.2059</MEAN_ANOMALY></meanElements><tleParameters><EPHEMERIS_TYPE>0</EPHEMERIS_TYPE><CLASSIFICATION_TYPE>U</CLASSIFICATION_TYPE><NORAD_CAT_ID>25419</NORAD_CAT_ID><ELEMENT_SET_NO>999</ELEMENT_SET_NO><REV_AT_EPOCH>35707</REV_AT_EPOCH><BSTAR>.9969E-3</BSTAR><MEAN_MOTION_DOT>.281E-4</MEAN_MOTION_DOT><MEAN_MOTION_DDOT>0</MEAN_MOTION_DDOT></tleParameters></data></segment></body></omm>
<omm id="CCSDS_OMM_VERS" version="2.0">
<header><CREATION_DATE/><ORIGINATOR/></header><body><segment><metadata><OBJECT_NAME>ORBCOMM FM13</OBJECT_NAME><OBJECT_ID>1998-046H</OBJECT_ID><CENTER_NAME>EARTH</CENTER_NAME><REF_FRAME>TEME</REF_FRAME><TIME_SYSTEM>UTC</TIME_SYSTEM><MEAN_ELEMENT_THEORY>SGP4</MEAN_ELEMENT_THEORY></metadata><data><meanElements><EPOCH>2024-07-25T12:02:23.818848</EPOCH><MEAN_MOTION>14.35698735</MEAN_MOTION><ECCENTRICITY>.0002243</ECCENTRICITY><INCLINATION>44.9976</INCLINATION><RA_OF_ASC_NODE>290.2735</RA_OF_ASC_NODE><ARG_OF_PERICENTER>81.9295</ARG_OF_PERICENTER><MEAN_ANOMALY>278.1807</MEAN_ANOMALY></meanElements><tleParameters><EPHEMERIS_TYPE>0</EPHEMERIS_TYPE><CLASSIFICATION_TYPE>U</CLASSIFICATION_TYPE><NORAD_CAT_ID>25420</NORAD_CAT_ID><ELEMENT_SET_NO>999</ELEMENT_SET_NO><REV_AT_EPOCH>35738</REV_AT_EPOCH><BSTAR>.70337E-3</BSTAR><MEAN_MOTION_DOT>.1909E-4</MEAN_MOTION_DOT><MEAN_MOTION_DDOT>0</MEAN_MOTION_DDOT></tleParameters></data></segment></body></omm>
<omm id="CCSDS_OMM_VERS" version="2.0">
<header><CREATION_DATE/><ORIGINATOR/></header><body><segment><metadata><OBJECT_NAME>ORBCOMM FM21</OBJECT_NAME><OBJECT_ID>1998-053A</OBJECT_ID><CENTER_NAME>EARTH</CENTER_NAME><REF_FRAME>TEME</REF_FRAME><TIME_SYSTEM>UTC</TIME_SYSTEM><MEAN_ELEMENT_THEORY>SGP4</MEAN_ELEMENT_THEORY></metadata><data><meanElements><EPOCH>2024-07-24T21:36:30.338496</EPOCH><MEAN_MOTION>14.35591152</MEAN_MOTION><ECCENTRICITY>.0000482</ECCENTRICITY><INCLINATION>45.0094</INCLINATION><RA_OF_ASC_NODE>17.5485</RA_OF_ASC_NODE><ARG_OF_PERICENTER>144.7528</ARG_OF_PERICENTER><MEAN_ANOMALY>215.3351</MEAN_ANOMALY></meanElements><tleParameters><EPHEMERIS_TYPE>0</EPHEMERIS_TYPE><CLASSIFICATION_TYPE>U</CLASSIFICATION_TYPE><NORAD_CAT_ID>25475</NORAD_CAT_ID><ELEMENT_SET_NO>999</ELEMENT_SET_NO><REV_AT_EPOCH>35051</REV_AT_EPOCH><BSTAR>.8816E-3</BSTAR><MEAN_MOTION_DOT>.2423E-4</MEAN_MOTION_DOT><MEAN_MOTION_DDOT>0</MEAN_MOTION_DDOT></tleParameters></data></segment></body></omm>
<omm id="CCSDS_OMM_VERS" version="2.0">
<header><CREATION_DATE/><ORIGINATOR/></header><body><segment><metadata><OBJECT_NAME>ORBCOMM FM22</OBJECT_NAME><OBJECT_ID>1998-053B</OBJECT_ID><CENTER_NAME>EARTH</CENTER_NAME><REF_FRAME>TEME</REF_FRAME><TIME_SYSTEM>UTC</TIME_SYSTEM><MEAN_ELEMENT_THEORY>SGP4</MEAN_ELEMENT_THEORY></metadata><data><meanElements><EPOCH>2024-07-24T22:02:10.237056</EPOCH><MEAN_MOTION>14.36174255</MEAN_MOTION><ECCENTRICITY>.0001157</ECCENTRICITY><INCLINATION>45.0090</INCLINATION><RA_OF_ASC_NODE>14.4244</RA_OF_ASC_NODE><ARG_OF_PERICENTER>27.8128</ARG_OF_PERICENTER><MEAN_ANOMALY>332.2781</MEAN_ANOMALY></meanElements><tleParameters><EPHEMERIS_TYPE>0</EPHEMERIS_TYPE><CLASSIFICATION_TYPE>U</CLASSIFICATION_TYPE><NORAD_CAT_ID>25476</NORAD_CAT_ID><ELEMENT_SET_NO>999</ELEMENT_SET_NO><REV_AT_EPOCH>35054</REV_AT_EPOCH><BSTAR>.97993E-3</BSTAR><MEAN_MOTION_DOT>.2742E-4</MEAN_MOTION_DOT><MEAN_MOTION_DDOT>0</MEAN_MOTION_DDOT></tleParameters></data></segment></body></omm>
<omm id="CCSDS_OMM_VERS" version="2.0">
<header><CREATION_DATE/><ORIGINATOR/></header><body><segment><metadata><OBJECT_NAME>ORBCOMM FM23</OBJECT_NAME><OBJECT_ID>1998-053C</OBJECT_ID><CENTER_NAME>EARTH</CENTER_NAME><REF_FRAME>TEME</REF_FRAME><TIME_SYSTEM>UTC</TIME_SYSTEM><MEAN_ELEMENT_THEORY>SGP4</MEAN_ELEMENT_THEORY></metadata><data><meanElements><EPOCH>2024-07-25T13:15:20.982816</EPOCH><MEAN_MOTION>14.35639991</MEAN_MOTION><ECCENTRICITY>.0000737</ECCENTRICITY><INCLINATION>45.0101</INCLINATION><RA_OF_ASC_NODE>16.8686</RA_OF_ASC_NODE><ARG_OF_PERICENTER>42.6701</ARG_OF_PERICENTER><MEAN_ANOMALY>317.4203</MEAN_ANOMALY></meanElements><tleParameters><EPHEMERIS_TYPE>0</EPHEMERIS_TYPE><CLASSIFICATION_TYPE>U</CLASSIFICATION_TYPE><NORAD_CAT_ID>25477</NORAD_CAT_ID><ELEMENT_SET_NO>999</ELEMENT_SET_NO><REV_AT_EPOCH>35073</REV_AT_EPOCH><BSTAR>.74647E-3</BSTAR><MEAN_MOTION_DOT>.2032E-4</MEAN_MOTION_DOT><MEAN_MOTION_DDOT>0</MEAN_MOTION_DDOT></tleParameters></data></segment></body></omm>

</ndm>
