ORBCOMM FM20            
1 25416U 98046D   24206.62085349  .00001905  00000+0  70514-3 0  9990
2 25416  44.9952 290.7017 0001894 247.2900 112.7747 14.35489255357162
ORBCOMM FM16            
1 25417U 98046E   24207.22105555  .00002259  00000+0  80908-3 0  9991
2 25417  44.9937 283.0378 0001644 120.4321 239.6689 14.36571526357419
ORBCOMM FM15            
1 25418U 98046F   24206.70572300  .00002623  00000+0  93750-3 0  9994
2 25418  44.9973 289.7183 0001479 129.0647 231.0332 14.36278979357124
ORBCOMM FM14            
1 25419U 98046G   24206.65106629  .00002810  00000+0  99690-3 0  9993
2 25419  44.9963 288.9778 0000348 197.8776 162.2059 14.36477858357077
ORBCOMM FM13            
1 25420U 98046H   24207.50166457  .00001909  00000+0  70337-3 0  9990
2 25420  44.9976 290.2735 0002243  81.9295 278.1807 14.35698735357387
ORBCOMM FM21            
1 25475U 98053A   24206.90035114  .00002423  00000+0  88160-3 0  9991
2 25475  45.0094  17.5485 0000482 144.7528 215.3351 14.35591152350512
ORBCOMM FM22            
1 25476U 98053B   24206.91817404  .00002742  00000+0  97993-3 0  9991
2 25476  45.0090  14.4244 0001157  27.8128 332.2781 14.36174255350546
ORBCOMM FM23            
1 25477U 98053C   24207.55232619  .00002032  00000+0  74647-3 0  9995
2 25477  45.0101  16.8686 0000737  42.6701 317.4203 14.35639991350738
